{
    "type": "FeatureCollection",
    "name": "office5",
    "crs": {
        "type": "name",
        "properties": {
            "name": "urn:ogc:def:crs:EPSG::3857"
        }
    },
    "features": [
        {
            "type": "Feature",
            "properties": {
                "id": 0
            },
            "geometry": {
                "type": "Point",
                "coordinates": [
                    1.743567943572998,
                    -0.7918379902839661
                ]
            }
        },
        {
            "type": "Feature",
            "properties": {
                "id": 1
            },
            "geometry": {
                "type": "Point",
                "coordinates": [
                    3.335999011993408,
                    -0.5300449728965759
                ]
            }
        },
        {
            "type": "Feature",
            "properties": {
                "id": 2
            },
            "geometry": {
                "type": "Point",
                "coordinates": [
                    4.648959159851074,
                    -0.32923099398612976
                ]
            }
        },
        {
            "type": "Feature",
            "properties": {
                "id": 3
            },
            "geometry": {
                "type": "Point",
                "coordinates": [
                    5.930501937866211,
                    -0.13170099258422852
                ]
            }
        },
        {
            "type": "Feature",
            "properties": {
                "id": 4
            },
            "geometry": {
                "type": "Point",
                "coordinates": [
                    7.117790222167969,
                    0.055969998240470886
                ]
            }
        },
        {
            "type": "Feature",
            "properties": {
                "id": 5
            },
            "geometry": {
                "type": "Point",
                "coordinates": [
                    8.713506698608398,
                    0.28635600209236145
                ]
            }
        },
        {
            "type": "Feature",
            "properties": {
                "id": 10000,
                "startid": 0,
                "endid": 1
            },
            "geometry": {
                "type": "LineString",
                "coordinates": [
                    [
                        1.743567943572998,
                        -0.7918379902839661
                    ],
                    [
                        3.335999011993408,
                        -0.5300449728965759
                    ]
                ]
            }
        },
        {
            "type": "Feature",
            "properties": {
                "id": 10001,
                "startid": 1,
                "endid": 0
            },
            "geometry": {
                "type": "LineString",
                "coordinates": [
                    [
                        3.335999011993408,
                        -0.5300449728965759
                    ],
                    [
                        1.743567943572998,
                        -0.7918379902839661
                    ]
                ]
            }
        },
        {
            "type": "Feature",
            "properties": {
                "id": 10002,
                "startid": 1,
                "endid": 2
            },
            "geometry": {
                "type": "LineString",
                "coordinates": [
                    [
                        3.335999011993408,
                        -0.5300449728965759
                    ],
                    [
                        4.648959159851074,
                        -0.32923099398612976
                    ]
                ]
            }
        },
        {
            "type": "Feature",
            "properties": {
                "id": 10003,
                "startid": 2,
                "endid": 1
            },
            "geometry": {
                "type": "LineString",
                "coordinates": [
                    [
                        4.648959159851074,
                        -0.32923099398612976
                    ],
                    [
                        3.335999011993408,
                        -0.5300449728965759
                    ]
                ]
            }
        },
        {
            "type": "Feature",
            "properties": {
                "id": 10004,
                "startid": 2,
                "endid": 3
            },
            "geometry": {
                "type": "LineString",
                "coordinates": [
                    [
                        4.648959159851074,
                        -0.32923099398612976
                    ],
                    [
                        5.930501937866211,
                        -0.13170099258422852
                    ]
                ]
            }
        },
        {
            "type": "Feature",
            "properties": {
                "id": 10005,
                "startid": 3,
                "endid": 2
            },
            "geometry": {
                "type": "LineString",
                "coordinates": [
                    [
                        5.930501937866211,
                        -0.13170099258422852
                    ],
                    [
                        4.648959159851074,
                        -0.32923099398612976
                    ]
                ]
            }
        },
        {
            "type": "Feature",
            "properties": {
                "id": 10006,
                "startid": 3,
                "endid": 4
            },
            "geometry": {
                "type": "LineString",
                "coordinates": [
                    [
                        5.930501937866211,
                        -0.13170099258422852
                    ],
                    [
                        7.117790222167969,
                        0.055969998240470886
                    ]
                ]
            }
        },
        {
            "type": "Feature",
            "properties": {
                "id": 10007,
                "startid": 4,
                "endid": 3
            },
            "geometry": {
                "type": "LineString",
                "coordinates": [
                    [
                        7.117790222167969,
                        0.055969998240470886
                    ],
                    [
                        5.930501937866211,
                        -0.13170099258422852
                    ]
                ]
            }
        },
        {
            "type": "Feature",
            "properties": {
                "id": 10008,
                "startid": 4,
                "endid": 5
            },
            "geometry": {
                "type": "LineString",
                "coordinates": [
                    [
                        7.117790222167969,
                        0.055969998240470886
                    ],
                    [
                        8.713506698608398,
                        0.28635600209236145
                    ]
                ]
            }
        },
        {
            "type": "Feature",
            "properties": {
                "id": 10009,
                "startid": 5,
                "endid": 4
            },
            "geometry": {
                "type": "LineString",
                "coordinates": [
                    [
                        8.713506698608398,
                        0.28635600209236145
                    ],
                    [
                        7.117790222167969,
                        0.055969998240470886
                    ]
                ]
            }
        }
    ]
}